STARLINK-4184           
1 52852U 22062Y   26068.04815335 -.00000906  00000+0 -38868-4 0  9998
2 52852  53.2188  26.9984 0001506  90.3183 269.7982 15.08833143205821
LEMUR-2-STELLA          
1 60533U 24149BT  26068.72657350  .00013685  00000+0  85776-3 0  9992
2 60533  97.6764 150.9122 0001299  95.1117 265.0260 15.09464064 85488
